
# Worst residual: 6.52 km
# MJD 60113.000000 (2023 Jun 18  0:00)
2008-051A = TR93D0F = IBEX = NORAD 33401
1 33401U 08051A   23169.49919926  .00000000  00000-0  00000-0 0 19367
2 33401 048.2008 032.8176 5652156 040.7854 206.6021 00.10782772    01

# Worst residual: 9.10 km
# MJD 60114.000000 (2023 Jun 19  0:00)
2008-051A = TR93D0F = IBEX = NORAD 33401
1 33401U 08051A   23170.49919926  .00000000  00000-0  00000-0 0 19369
2 33401 048.2203 032.8183 5650743 040.9612 244.9459 00.10791288    02

# Worst residual: 8.74 km
# MJD 60115.000000 (2023 Jun 20  0:00)
2008-051A = TR93D0F = IBEX = NORAD 33401
1 33401U 08051A   23171.49919926  .00000000  00000-0  00000-0 0 19360
2 33401 048.2281 032.8035 5644263 041.1315 283.3467 00.10806267    07

# Worst residual: 10.24 km
# MJD 60116.000000 (2023 Jun 21  0:00)
2008-051A = TR93D0F = IBEX = NORAD 33401
1 33401U 08051A   23172.49919926  .00000000  00000-0  00000-0 0 19361
2 33401 048.2347 032.7453 5636003 041.1705 322.0325 00.10806488    08

# Worst residual: 50.67 km
# MJD 60117.000000 (2023 Jun 22  0:00)
2008-051A = TR93D0F = IBEX = NORAD 33401
1 33401U 08051A   23173.49919926  .00000000  00000-0  00000-0 0 19362
2 33401 048.2961 032.6655 5662095 041.1392 000.8965 00.10699408    08

# Worst residual: 31.90 km
# MJD 60118.000000 (2023 Jun 23  0:00)
2008-051A = TR93D0F = IBEX = NORAD 33401
1 33401U 08051A   23174.49919926  .00000000  00000-0  00000-0 0 19363
2 33401 048.3002 032.7111 5655984 041.5457 039.1299 00.10678380    09

# Worst residual: 20.50 km
# MJD 60119.000000 (2023 Jun 24  0:00)
2008-051A = TR93D0F = IBEX = NORAD 33401
1 33401U 08051A   23175.49919926  .00000000  00000-0  00000-0 0 19364
2 33401 048.3240 032.6831 5644646 041.1962 078.3560 00.10789169    05

# Worst residual: 14.89 km
# MJD 60120.000000 (2023 Jun 25  0:00)
2008-051A = TR93D0F = IBEX = NORAD 33401
1 33401U 08051A   23176.49919926  .00000000  00000-0  00000-0 0 19365
2 33401 048.3588 032.6623 5653721 040.9160 117.8081 00.10847978    00

# Worst residual: 12.11 km
# MJD 60121.000000 (2023 Jun 26  0:00)
2008-051A = TR93D0F = IBEX = NORAD 33401
1 33401U 08051A   23177.49919926  .00000000  00000-0  00000-0 0 19366
2 33401 048.3699 032.6374 5661471 040.7776 157.2927 00.10873326    01

# Worst residual: 14.51 km
# MJD 60122.000000 (2023 Jun 27  0:00)
2008-051A = TR93D0F = IBEX = NORAD 33401
1 33401U 08051A   23178.49919926  .00000000  00000-0  00000-0 0 19367
2 33401 048.3684 032.6027 5666213 040.6705 196.8639 00.10879390    06

# Worst residual: 20.15 km
# MJD 60123.000000 (2023 Jun 28  0:00)
2008-051A = TR93D0F = IBEX = NORAD 33401
1 33401U 08051A   23179.49919926  .00000000  00000-0  00000-0 0 19368
2 33401 048.3704 032.5724 5672447 040.5041 236.5914 00.10866331    09

# Worst residual: 32.78 km
# MJD 60124.000000 (2023 Jun 29  0:00)
2008-051A = TR93D0F = IBEX = NORAD 33401
1 33401U 08051A   23180.49919926  .00000000  00000-0  00000-0 0 19360
2 33401 048.3795 032.5680 5685186 040.1869 276.5002 00.10814452    07

# Worst residual: 71.61 km
# MJD 60125.000000 (2023 Jun 30  0:00)
2008-051A = TR93D0F = IBEX = NORAD 33401
1 33401U 08051A   23181.49919926  .00000000  00000-0  00000-0 0 19361
2 33401 048.3798 032.5572 5729097 039.5325 316.7074 00.10636686    06

# Worst residual: 242.89 km
# MJD 60126.000000 (2023 Jul  1  0:00)
2008-051A = TR93D0F = IBEX = NORAD 33401
1 33401U 08051A   23182.49919926  .00000000  00000-0  00000-0 0 19362
2 33401 048.4008 032.4662 5897099 039.6859 355.8367 00.10133357    07

# Worst residual: 210.05 km
# MJD 60127.000000 (2023 Jul  2  0:00)
2008-051A = TR93D0F = IBEX = NORAD 33401
1 33401U 08051A   23183.49919926  .00000000  00000-0  00000-0 0 19363
2 33401 048.4280 032.5375 5813576 042.1957 031.8894 00.10243030    03

# Worst residual: 63.31 km
# MJD 60128.000000 (2023 Jul  3  0:00)
2008-051A = TR93D0F = IBEX = NORAD 33401
1 33401U 08051A   23184.49919926  .00000000  00000-0  00000-0 0 19364
2 33401 048.3737 032.5830 5696863 041.2875 072.0918 00.10701043    09

# Worst residual: 35.42 km
# MJD 60129.000000 (2023 Jul  4  0:00)
2008-051A = TR93D0F = IBEX = NORAD 33401
1 33401U 08051A   23185.49919926  .00000000  00000-0  00000-0 0 19365
2 33401 048.3932 032.5686 5685680 040.5797 112.5436 00.10851982    08

# Worst residual: 23.24 km
# MJD 60130.000000 (2023 Jul  5  0:00)
2008-051A = TR93D0F = IBEX = NORAD 33401
1 33401U 08051A   23186.49919926  .00000000  00000-0  00000-0 0 19366
2 33401 048.4583 032.5796 5700632 040.1842 152.6720 00.10911312    00

# Worst residual: 12.36 km
# MJD 60131.000000 (2023 Jul  6  0:00)
2008-051A = TR93D0F = IBEX = NORAD 33401
1 33401U 08051A   23187.49919926  .00000000  00000-0  00000-0 0 19367
2 33401 048.5160 032.6070 5720114 040.0246 192.4260 00.10935642    05

# Worst residual: 6.84 km
# MJD 60132.000000 (2023 Jul  7  0:00)
2008-051A = TR93D0F = IBEX = NORAD 33401
1 33401U 08051A   23188.49919926  .00000000  00000-0  00000-0 0 19368
2 33401 048.5417 032.6145 5734587 040.0072 231.9560 00.10944013    03

# Worst residual: 11.88 km
# MJD 60133.000000 (2023 Jul  8  0:00)
2008-051A = TR93D0F = IBEX = NORAD 33401
1 33401U 08051A   23189.49919926  .00000000  00000-0  00000-0 0 19369
2 33401 048.5473 032.5938 5742681 039.9750 271.5233 00.10931909    05

# Worst residual: 33.90 km
# MJD 60134.000000 (2023 Jul  9  0:00)
2008-051A = TR93D0F = IBEX = NORAD 33401
1 33401U 08051A   23190.49919926  .00000000  00000-0  00000-0 0 19361
2 33401 048.5530 032.5740 5760117 039.6959 311.3821 00.10852179    09

# Worst residual: 115.30 km
# MJD 60135.000000 (2023 Jul 10  0:00)
2008-051A = TR93D0F = IBEX = NORAD 33401
1 33401U 08051A   23191.49919926  .00000000  00000-0  00000-0 0 19362
2 33401 048.5462 032.5641 5839353 039.5567 350.9103 00.10605730    07

# Worst residual: 69.53 km
# MJD 60136.000000 (2023 Jul 11  0:00)
2008-051A = TR93D0F = IBEX = NORAD 33401
1 33401U 08051A   23192.49919926  .00000000  00000-0  00000-0 0 19363
2 33401 048.5328 032.5267 5813341 040.7451 028.8141 00.10644307    03

# Worst residual: 27.66 km
# MJD 60137.000000 (2023 Jul 12  0:00)
2008-051A = TR93D0F = IBEX = NORAD 33401
1 33401U 08051A   23193.49919926  .00000000  00000-0  00000-0 0 19364
2 33401 048.5022 032.5129 5762343 040.5839 068.2014 00.10812699    02

# Worst residual: 10.26 km
# MJD 60138.000000 (2023 Jul 13  0:00)
2008-051A = TR93D0F = IBEX = NORAD 33401
1 33401U 08051A   23194.49919926  .00000000  00000-0  00000-0 0 19365
2 33401 048.4681 032.4797 5755570 040.4157 107.6842 00.10864745    04

# Worst residual: 5.24 km
# MJD 60139.000000 (2023 Jul 14  0:00)
2008-051A = TR93D0F = IBEX = NORAD 33401
1 33401U 08051A   23195.49919926  .00000000  00000-0  00000-0 0 19366
2 33401 048.4622 032.4454 5757724 040.3686 147.0120 00.10881316    08

# Worst residual: 3.32 km
# MJD 60140.000000 (2023 Jul 15  0:00)
2008-051A = TR93D0F = IBEX = NORAD 33401
1 33401U 08051A   23196.49919926  .00000000  00000-0  00000-0 0 19367
2 33401 048.4829 032.4335 5761745 040.4081 186.1139 00.10885831    03
